{
  "norad_id": 64039,
  "name": "STARLINK-34089",
  "history": [
    {
      "epoch": "2026-03-28T21:25:57.161280",
      "apogee_km": 574.3506958084281,
      "perigee_km": 569.7153494135482,
      "latitude_deg": 62.91897893317703,
      "longitude_deg": -50.369820800144225,
      "semi_major_axis_km": 6950.170022610988,
      "eccentricity": 0.00033347,
      "inclination_deg": 70.001,
      "raan_deg": 66.2326,
      "arg_perigee_deg": 269.85,
      "mean_anomaly_deg": 90.2277,
      "mean_motion_rev_day": 14.98337395
    },
    {
      "epoch": "2026-03-29T03:50:30.246720",
      "apogee_km": 573.9771465038375,
      "perigee_km": 570.3560383321874,
      "latitude_deg": 0.9876163764119207,
      "longitude_deg": -24.733059199992567,
      "semi_major_axis_km": 6950.303592418012,
      "eccentricity": 0.0002605,
      "inclination_deg": 70.0021,
      "raan_deg": 65.5596,
      "arg_perigee_deg": 259.3392,
      "mean_anomaly_deg": 100.7474,
      "mean_motion_rev_day": 14.98294203
    }
  ]
}